     2.100          NAVIGATION                              RINEX VERSION / TYPE
fic2rin                                 11/04/2013 00:26:24 PGM / RUN BY / DATE
                                                            END OF HEADER
16 13 11  3  2  0  0.0 -.242874026299D-03  .102318153949D-11  .000000000000D+00
     .770000000000D+02 -.495937500000D+02  .347657338466D-08 -.206097092163D+01
    -.265985727310D-05  .710362114478D-02  .141337513924D-04  .515374913597D+04
     .720000000000D+04 -.521540641785D-07 -.104226052062D+00 -.372529029846D-07
     .986753600717D+00  .120812500000D+03  .132460046224D+00 -.742995234448D-08
     .268939773850D-09  .100000000000D+01  .176500000000D+04  .000000000000D+00
     .240000000000D+01  .000000000000D+00 -.977888703346D-08  .770000000000D+02
     .600000000000D+01  .400000000000D+01
17 13 11  3  2  0  0.0 -.371262431145D-04 -.363797880709D-11  .000000000000D+00
     .240000000000D+02  .410937500000D+02  .455947563475D-08 -.301235295088D+01
     .214762985706D-05  .867296732031D-02  .682286918163D-05  .515369191742D+04
     .720000000000D+04  .391155481339D-07  .930048533352D+00 -.121071934700D-06
     .966504293892D+00  .249125000000D+03 -.218632168192D+01 -.790997233924D-08
     .618954353362D-09  .100000000000D+01  .176500000000D+04  .000000000000D+00
     .240000000000D+01  .000000000000D+00 -.107102096081D-07  .240000000000D+02
     .600000000000D+01  .400000000000D+01
18 13 11  3  2  0  0.0  .282818451524D-03  .204636307899D-11  .000000000000D+00
     .510000000000D+02  .606875000000D+02  .494663461862D-08 -.148439211770D+01
     .328011810780D-05  .145696239779D-01  .120736658573D-04  .515365646553D+04
     .720000000000D+04  .329688191414D-06  .297969834597D+01  .193715095520D-06
     .927094407283D+00  .126625000000D+03 -.207229102269D+01 -.807819363205D-08
    -.128219626576D-09  .100000000000D+01  .176500000000D+04  .000000000000D+00
     .240000000000D+01  .000000000000D+00 -.111758708954D-07  .510000000000D+02
     .600000000000D+01  .400000000000D+01
20 13 11  3  2  0  0.0  .134008470923D-03  .284217094304D-11  .000000000000D+00
     .790000000000D+02  .575625000000D+02  .502735226654D-08 -.100080018170D+01
     .303983688354D-05  .573646742851D-02  .132899731398D-04  .515365842819D+04
     .720000000000D+04 -.204890966415D-07  .292645480757D+01  .856816768646D-07
     .927941650437D+00  .109281250000D+03  .128597932986D+01 -.823641450830D-08
    -.223580741607D-09  .100000000000D+01  .176500000000D+04  .000000000000D+00
     .240000000000D+01  .000000000000D+00 -.791624188423D-08  .790000000000D+02
     .600000000000D+01  .400000000000D+01
21 13 11  3  2  0  0.0 -.326637178659D-03 -.181898940355D-11  .000000000000D+00
     .250000000000D+02 -.400000000000D+02  .563737767655D-08 -.460587294658D+00
    -.186450779438D-05  .206451500999D-01  .627711415291D-05  .515360198402D+04
     .720000000000D+04 -.124797224998D-06  .193334732939D+01  .296160578728D-06
     .931528577813D+00  .246781250000D+03 -.209372547017D+01 -.898787438104D-08
    -.420731810883D-09  .100000000000D+01  .176500000000D+04  .000000000000D+00
     .240000000000D+01  .000000000000D+00 -.111758708954D-07  .250000000000D+02
     .600000000000D+01  .400000000000D+01
23 13 11  3  2  0  0.0  .336030498147D-04 -.341060513165D-11  .000000000000D+00
     .900000000000D+01  .121906250000D+03  .511985611970D-08  .200949163610D+01
     .630319118500D-05  .884197070263D-02  .337138772011D-05  .515363816833D+04
     .720000000000D+04 -.160187482834D-06 -.224142687574D+01  .949949026108D-07
     .954001779055D+00  .314281250000D+03 -.281127830898D+01 -.863357390872D-08
     .375015620906D-09  .100000000000D+01  .176500000000D+04  .000000000000D+00
     .240000000000D+01  .000000000000D+00 -.200234353542D-07  .900000000000D+01
     .600000000000D+01  .400000000000D+01
26 13 11  3  2  0  0.0  .259595923126D-03 -.102318153949D-10  .000000000000D+00
     .280000000000D+02  .100687500000D+03  .447304346307D-08  .201266621368D+01
     .477582216263D-05  .211201811908D-01  .335276126862D-05  .515368081856D+04
     .720000000000D+04  .186264514923D-07 -.215736269628D+01 -.441446900368D-06
     .977139352839D+00  .319906250000D+03  .125401192780D+01 -.807819363205D-08
     .366443835285D-09  .100000000000D+01  .176500000000D+04  .000000000000D+00
     .240000000000D+01  .000000000000D+00 -.605359673500D-08  .280000000000D+02
     .600000000000D+01  .400000000000D+01
27 13 11  3  2  0  0.0 -.543817877769D-04 -.375166564481D-11  .000000000000D+00
     .180000000000D+02  .481250000000D+02  .479448542385D-08  .261368562716D+01
     .256113708019D-05  .452833599411D-03  .656954944134D-05  .515365866089D+04
     .720000000000D+04  .447034835815D-07  .885810232957D+00  .130385160446D-07
     .961176259935D+00  .254000000000D+03  .777520520702D+00 -.822141388346D-08
     .607525305868D-09  .100000000000D+01  .176500000000D+04  .000000000000D+00
     .240000000000D+01  .000000000000D+00  .186264514923D-08  .180000000000D+02
     .600000000000D+01  .400000000000D+01
28 13 11  3  2  0  0.0  .305683817714D-03  .306954461848D-11  .000000000000D+00
     .810000000000D+02 -.683750000000D+02  .342728561735D-08 -.221317905554D+01
    -.355020165443D-05  .189715701854D-01  .135526061058D-04  .515366120720D+04
     .720000000000D+04  .296160578728D-06 -.981844798120D-01 -.149011611938D-07
     .985233460597D+00  .126812500000D+03 -.175845758108D+01 -.711458206519D-08
     .225723688012D-09  .100000000000D+01  .176500000000D+04  .000000000000D+00
     .240000000000D+01  .000000000000D+00 -.107102096081D-07  .810000000000D+02
     .600000000000D+01  .400000000000D+01
29 13 11  3  2  0  0.0  .483974348754D-03  .295585778076D-11  .000000000000D+00
     .670000000000D+02  .454687500000D+02  .467376610969D-08 -.906200625065D-01
     .241771340370D-05  .140475446824D-02  .651739537716D-05  .515354730225D+04
     .720000000000D+04 -.353902578354D-07  .938943733587D+00 -.931322574615D-08
     .967175006721D+00  .258687500000D+03 -.102822407035D+01 -.817641200895D-08
     .514664294977D-09  .100000000000D+01  .176500000000D+04  .000000000000D+00
     .240000000000D+01  .000000000000D+00 -.931322574615D-08  .670000000000D+02
     .600000000000D+01  .400000000000D+01
31 13 11  3  2  0  0.0  .329019501805D-03  .682121026330D-12  .000000000000D+00
     .840000000000D+02 -.109343750000D+03  .437839666351D-08  .481680482851D+00
    -.589340925217D-05  .805637822486D-02  .420585274696D-05  .515370029640D+04
     .720000000000D+04  .000000000000D+00 -.117765452366D+01 -.121071934700D-06
     .979474392457D+00  .308750000000D+03 -.726261500895D+00 -.832070373357D-08
    -.466805158594D-09  .100000000000D+01  .176500000000D+04  .000000000000D+00
     .240000000000D+01  .000000000000D+00 -.130385160446D-07  .840000000000D+02
     .600000000000D+01  .400000000000D+01
32 13 11  3  2  0  0.0 -.533910933882D-03  .420641299570D-11  .000000000000D+00
     .880000000000D+02  .843750000000D+02  .454090343257D-08  .949927678015D+00
     .441260635853D-05  .116227096878D-01  .126175582409D-04  .515357069206D+04
     .720000000000D+04  .275671482086D-06  .306934203940D+01  .130385160446D-06
     .949056024610D+00  .131750000000D+03 -.253989285593D+00 -.796497463031D-08
    -.100361323309D-09  .100000000000D+01  .176500000000D+04  .000000000000D+00
     .240000000000D+01  .000000000000D+00 -.325962901115D-08  .880000000000D+02
     .600000000000D+01  .400000000000D+01
 1 13 11  3  2  0  0.0  .907974317670D-04  .341060513165D-11  .000000000000D+00
     .760000000000D+02 -.403437500000D+02  .487770317592D-08  .957751676967D+00
    -.217556953430D-05  .249831262045D-02  .656768679619D-05  .515368115997D+04
     .720000000000D+04  .260770320892D-07  .193958296943D+01  .428408384323D-07
     .960135469793D+00  .252406250000D+03  .427668343383D+00 -.823605735056D-08
    -.541093967307D-09  .100000000000D+01  .176500000000D+04  .000000000000D+00
     .240000000000D+01  .000000000000D+00  .791624188423D-08  .760000000000D+02
     .360000000000D+02  .400000000000D+01
24 13 11  3  2  0  0.0 -.166594982147D-04 -.682121026330D-12  .000000000000D+00
     .112000000000D+03 -.104125000000D+03  .490699011012D-08  .148706168719D+01
    -.534020364285D-05  .125263840891D-02  .267475843430D-05  .515364973640D+04
     .720000000000D+04  .800937414169D-07 -.121409675221D+01  .372529029846D-08
     .957944726563D+00  .324281250000D+03  .935533741764D-01 -.856071373095D-08
    -.396087927223D-09  .100000000000D+01  .176500000000D+04  .000000000000D+00
     .240000000000D+01  .000000000000D+00  .279396772385D-08  .112000000000D+03
     .360000000000D+02  .400000000000D+01
25 13 11  3  2  0  0.0  .163296703249D-03  .341060513165D-11  .000000000000D+00
     .960000000000D+02 -.655000000000D+02  .384480300862D-08 -.819434880638D+00
    -.355578958988D-05  .275392667390D-02  .126734375954D-04  .515371035385D+04
     .720000000000D+04  .298023223877D-07 -.162720031245D+00  .577419996262D-07
     .974879104908D+00  .143937500000D+03  .695434354238D+00 -.768710591310D-08
     .289297764699D-10  .100000000000D+01  .176500000000D+04  .000000000000D+00
     .240000000000D+01  .000000000000D+00  .558793544769D-08  .960000000000D+02
     .360000000000D+02  .400000000000D+01
 2 13 11  3  1 59 44.0  .459179282188D-03  .216004991671D-11  .000000000000D+00
     .800000000000D+01 -.492500000000D+02  .541915430096D-08  .179875095171D+01
    -.254251062870D-05  .126960367197D-01  .580027699471D-05  .515374632263D+04
     .718400000000D+04 -.279396772385D-06  .191446270570D+01  .726431608200D-07
     .938633249705D+00  .255656250000D+03 -.254492568034D+01 -.860392981678D-08
    -.506092509356D-09  .100000000000D+01  .176500000000D+04  .000000000000D+00
     .240000000000D+01  .000000000000D+00 -.176951289177D-07  .800000000000D+01
     .456000000000D+03  .400000000000D+01
